2024-174E               
1 61242U 24174E   24290.20738980  .00009896  00000+0  50755-3 0  9993
2 61242  97.4568 295.1374 0015509 202.8092 157.2454 15.16644202  3170
STARLINK-11300 [DTC]    
1 61243U 24175A   24290.49642863  .00122470  00000+0  74104-3 0  9998
2 61243  53.1543  47.7569 0000901  74.4930 285.6191 15.76744010  4421
STARLINK-11276 [DTC]    
1 61244U 24175B   24290.49154616  .00066184  00000+0  40515-3 0  9991
2 61244  53.1554  47.7270 0000909  56.4646 303.6461 15.76733004  4269
STARLINK-11280 [DTC]    
1 61245U 24175C   24290.60854902  .00102756  00000+0  62356-3 0  9993
2 61245  53.1552  47.0317 0001147 112.9143 247.1999 15.76754181  4546
STARLINK-11308 [DTC]    
1 61246U 24175D   24290.48665853  .00042450  00000+0  26186-3 0  9990
2 61246  53.1542  47.6926 0001107  94.8671 265.2476 15.76746611  4267
STARLINK-11305 [DTC]    
1 61247U 24175E   24290.60366536  .00011715  00000+0  75470-4 0  9992
2 61247  53.1540  46.9971 0001265  87.3431 272.7735 15.76729644  4598
STARLINK-11317 [DTC]    
1 61248U 24175F   24290.59878165  .00032131  00000+0  19951-3 0  9993
2 61248  53.1549  46.9648 0001136 111.6351 248.4791 15.76735239  4384
STARLINK-11293 [DTC]    
1 61249U 24175G   24290.59389898  .00027575  00000+0  17193-3 0  9996
2 61249  53.1562  46.9331 0001135  80.2356 279.8793 15.76728337  4598
STARLINK-11334 [DTC]    
1 61250U 24175H   24288.75001157  .00348082  00000+0  15171-2 0  9994
2 61250  53.1635  55.8691 0002928  24.6446  67.5108 15.83281935  4017
STARLINK-11319 [DTC]    
1 61251U 24175J   24290.57946007 -.00028805  00000+0 -16309-3 0  9995
2 61251  53.1640  46.8412 0000993  63.2865 296.8258 15.77989293  4590
STARLINK-11318 [DTC]    
1 61252U 24175K   24290.57090378  .00100424  00000+0  54519-3 0  9998
2 61252  53.1633  46.7849 0001024  61.4735 298.6390 15.79255924  4279
STARLINK-11311 [DTC]    
1 61253U 24175L   24290.56287943 -.00001352  00000+0 -34243-5 0  9990
2 61253  53.1635  46.7307 0001101  73.9129 286.2014 15.80348786  4549
STARLINK-11306 [DTC]    
1 61254U 24175M   24290.17612651  .00001697  00000+0  11848-4 0  9991
2 61254  53.1653  48.5825 0001517 146.3105 213.8015 15.81466367  4538
STARLINK-11313 [DTC]    
1 61255U 24175N   24290.16902308  .00004669  00000+0  25083-4 0  9990
2 61255  53.1631  48.5326 0001245 104.7088 255.4073 15.82686629  4337
STARLINK-32431          
1 61256U 24175P   24290.66667824 -.01336083  00000+0 -14543-1 0  9994
2 61256  53.1599  46.6868 0001058  51.6664 302.5236 15.65801616  4592
STARLINK-32432          
1 61257U 24175Q   24290.66667824 -.01334540  00000+0 -14525-1 0  9991
2 61257  53.1599  46.6909 0000991  60.7435 291.5311 15.65800753  4593
STARLINK-32382          
1 61258U 24175R   24290.66667824 -.01335906  00000+0 -14541-1 0  9997
2 61258  53.1601  46.6664 0001034  52.4119 311.3607 15.65801561  4342
STARLINK-32435          
1 61259U 24175S   24290.66667824 -.01334536  00000+0 -14525-1 0  9998
2 61259  53.1600  46.6828 0000976  60.8258 295.2819 15.65800814  4553
STARLINK-32474          
1 61260U 24175T   24290.66667824 -.01336066  00000+0 -14543-1 0  9990
2 61260  53.1600  46.6790 0001020  54.0302 303.9928 15.65801630  4554
STARLINK-32447          
1 61261U 24175U   24289.91667824 -.01359779  00000+0 -13548-1 0  9997
2 61261  53.1592  50.3525 0000958  56.4847  32.2956 15.68019024  4501
STARLINK-32446          
1 61262U 24175V   24289.91667824 -.01356544  00000+0 -13512-1 0  9996
2 61262  53.1591  50.3570 0001157  43.5196  43.3445 15.68016548  4488
2024-174F               
1 61263U 24174F   24290.61675151  .00176048  10549-4  10644-2 0  9991
2 61263  97.4303 296.8356 0161069 310.6982  48.0373 15.61543540  3324
2024-174G               
1 61443U 24174G   24290.16025268  .00488199  76671-4  21276-2 0  9993
2 61443  97.4244 296.5222 0128922 310.5079  48.5007 15.73062671  3079
CZ-2D R/B               
1 61445U 24177B   24290.34105454  .00305901  40876-4  10108-2 0  9993
2 61445  41.3920  40.3949 0018102  27.1574 333.0217 15.89299470  3004
CREW DRAGON 9           
1 61447U 24178A   24289.85235117  .00024221  00000+0  43198-3 0  9999
2 61447  51.6376  77.7306 0009120  72.7234 287.4752 15.49902575  1990
VULCAN CENTAUR R/B      
1 61448U 24179A   24278.48676111  .00000148  00000+0  00000+0 0  9994
2 61448  30.0000 357.3088 0004000 321.8000 177.5900 15.23529867    07
CYSAT-1                 
1 61501U 98067WZ  24289.90847209  .00142473  00000+0  22549-2 0  9991
2 61501  51.6366  77.3543 0008446  90.5158 269.6800 15.52404626  1200
DORA                    
1 61502U 98067XA  24289.90644296  .00236472  00000+0  35635-2 0  9996
2 61502  51.6366  77.3407 0006006  71.6498 288.5145 15.53415803  1197
HULIANWAN GAOGUI-03 (H*)
1 61503U 24181A   24284.71070559  .00000417 -72097-6  00000+0 0  9998
2 61503  28.4215 224.3262 7300910 179.4337  97.1562  2.28284594    08
2024-181B               
1 61504U 24181B   24287.35104774  .00083319  94558-7  24976-2 0  9998
2 61504  28.4273 223.2747 7233717 180.4451 205.0159  2.38368858    63
SJ-19 DEB               
1 61505U 24177C   24289.69297379  .02210135  28513-2  69848-2 0  9997
2 61505  41.5971  45.5847 0014562  30.8257 329.3447 15.90882156   683
SJ-19 DEB               
1 61506U 24177D   24289.77329484  .00113314  00000+0  64090-3 0  9992
2 61506  41.6017  45.3337 0011163  55.8807 304.3098 15.77885602   667
GAOFEN-12 05            
1 61571U 24186A   24290.57150243  .00054887  00000+0  55984-2 0  9999
2 61571  97.9145 295.8807 0005136 242.8510 117.2184 14.90398917    97
CZ-4C R/B               
1 61572U 24186B   24290.63352876  .00013579  00000+0  98868-3 0  9995
2 61572  97.8988 295.9450 0050852  45.1571 315.3767 15.02851286    98
